GPS BIIR-2  (PRN 13)    
1 24876U 97035A   17216.43078964  .00000075  00000-0  00000-0 0  9991
2 24876  55.5424 225.2116 0032923 103.8184 256.5894  2.00561325146999
GPS BIIR-3  (PRN 11)    
1 25933U 99055A   17216.83196356 -.00000043  00000-0  00000-0 0  9996
2 25933  51.6652  75.5075 0167930  95.9176 122.8318  2.00557449130624
GPS BIIR-4  (PRN 20)    
1 26360U 00025A   17216.78257248 -.00000027  00000-0  00000-0 0  9994
2 26360  53.1258 152.8646 0041913  93.8776 192.2896  2.00557887126315
GPS BIIR-5  (PRN 28)    
1 26407U 00040A   17216.93877222 -.00000085  00000-0  00000-0 0  9994
2 26407  56.6179 343.2496 0199791 270.1425  50.7297  2.00566500124992
GPS BIIR-6  (PRN 14)    
1 26605U 00071A   17216.86316734  .00000071  00000-0  00000-0 0  9990
2 26605  55.1142 222.9074 0095558 248.6640 286.0322  2.00562986122597
GPS BIIR-7  (PRN 18)    
1 26690U 01004A   17216.84883440 -.00000024  00000-0  00000-0 0  9991
2 26690  53.0472 155.7977 0183732 257.6598  17.5133  2.00569154120996
GPS BIIR-8  (PRN 16)    
1 27663U 03005A   17216.87452657 -.00000086  00000-0  00000-0 0  9998
2 27663  56.6861 342.9938 0091850  25.2680   5.6969  2.00556628106367
GPS BIIR-9  (PRN 21)    
1 27704U 03010A   17216.78306777 -.00000041  00000-0  00000-0 0  9992
2 27704  53.8853  96.2036 0241675 265.4218  21.8331  2.00568132105150
GPS BIIR-10 (PRN 22)    
1 28129U 03058A   17216.62298806 -.00000025  00000-0  00000-0 0  9994
2 28129  52.9366 155.7919 0076335 263.1625  95.9423  2.00552610 99833
GPS BIIR-11 (PRN 19)    
1 28190U 04009A   17216.90408194 -.00000042  00000-0  00000-0 0  9992
2 28190  56.0311  43.9893 0100012  58.8538 147.4930  2.00563935 98036
GPS BIIR-12 (PRN 23)    
1 28361U 04023A   17216.92696167  .00000065  00000-0  00000-0 0  9993
2 28361  54.1023 217.9678 0120351 221.4133 271.2321  2.00559606 96090
GPS BIIR-13 (PRN 02)    
1 28474U 04045A   17216.64733385 -.00000042  00000-0  00000-0 0  9991
2 28474  54.2631  95.6995 0171638 247.6757  43.4456  2.00577090 93474
GPS BIIRM-1 (PRN 17)    
1 28874U 05038A   17216.90547441 -.00000044  00000-0  00000-0 0  9995
2 28874  56.1855  41.2578 0119213 254.4025 334.9026  2.00564999 86888
GPS BIIRM-2 (PRN 31)    
1 29486U 06042A   17216.70588462  .00000007  00000-0  00000-0 0  9995
2 29486  55.3666 280.3478 0085021 344.0630  20.1759  2.00554734 79482
GPS BIIRM-3 (PRN 12)    
1 29601U 06052A   17216.64133409 -.00000087  00000-0  00000-0 0  9994
2 29601  56.6593 341.9218 0064053  50.9580 309.6145  2.00556228 78459
GPS BIIRM-4 (PRN 15)    
1 32260U 07047A   17216.46393459  .00000062  00000-0  00000-0 0  9999
2 32260  53.2285 214.2921 0092755  32.4902 328.0956  2.00573456 71899
GPS BIIRM-5 (PRN 29)    
1 32384U 07062A   17216.79571137 -.00000043  00000-0  00000-0 0  9990
2 32384  56.2510  41.8474 0004792  22.7889 355.7142  2.00573978 70608
GPS BIIRM-6 (PRN 07)    
1 32711U 08012A   17216.36870540  .00000005  00000-0  00000-0 0  9990
2 32711  55.0958 279.7175 0110501 213.4011 145.9773  2.00557474 68819
GPS BIIRM-8 (PRN 05)    
1 35752U 09043A   17216.71807009 -.00000021  00000-0  00000-0 0  9991
2 35752  54.2606 157.5512 0050126  30.2554 244.8550  2.00548548 58407
GPS BIIF-1  (PRN 25)    
1 36585U 10022A   17216.73673920 -.00000086  00000-0  00000-0 0  9991
2 36585  55.9638 338.7024 0064029  46.3357 353.9329  2.00552198 52644
GPS BIIF-2  (PRN 01)    
1 37753U 11036A   17216.76043823 -.00000039  00000-0  00000-0 0  9999
2 37753  55.4688  98.8375 0068126  32.5519 107.3103  2.00562775 44323
GPS BIIF-3  (PRN 24)    
1 38833U 12053A   17216.55650083  .00000011  00000-0  00000-0 0  9997
2 38833  54.1242 276.5792 0056504  25.0659 335.2900  2.00562508 34591
GPS BIIF-4  (PRN 27)    
1 39166U 13023A   17216.40929334 -.00000049  00000-0  00000-0 0  9999
2 39166  55.8914  38.2769 0048251  20.1090 340.1282  2.00564748 30926
GPS BIIF-5  (PRN 30)    
1 39533U 14008A   17216.41356931 -.00000001  00000-0  00000-0 0  9997
2 39533  54.2770 281.8886 0030408 186.7221 173.3149  2.00566654 24742
GPS BIIF-6  (PRN 06)    
1 39741U 14026A   17216.19229023 -.00000045  00000-0  00000-0 0  9992
2 39741  55.4548  98.3807 0008454 292.3184  67.6562  2.00558182 23572
GPS BIIF-7  (PRN 09)    
1 40105U 14045A   17216.77947651  .00000067  00000-0  00000-0 0  9990
2 40105  54.6261 217.9064 0004514 120.0744 239.9957  2.00574189 21156
GPS BIIF-8  (PRN 03)    
1 40294U 14068A   17216.65641606 -.00000019  00000-0  00000-0 0  9990
2 40294  55.0086 158.5718 0008321 359.1315   0.8385  2.00561961 20254
GPS BIIF-9  (PRN 26)    
1 40534U 15013A   17216.29451554 -.00000090  00000-0  00000-0 0  9998
2 40534  54.9169 337.7671 0018148 355.9452   4.0484  2.00555569 16869
GPS BIIF-10  (PRN 08)   
1 40730U 15033A   17216.45030664 -.00000050  00000-0  00000-0 0  9997
2 40730  55.4252  37.9244 0026819 320.3792  39.4716  2.00564484 15054
GPS BIIF-11  (PRN 10)   
1 41019U 15062A   17216.50485295 -.00000019  00000-0  00000-0 0  9995
2 41019  55.0173 158.3679 0027474 204.0467 155.7974  2.00563706 12879
GPS BIIF-12  (PRN 32)   
1 41328U 16007A   17216.59459601  .00000069  00000-0  00000-0 0  9993
2 41328  54.8824 218.1165 0015484 222.0819 137.8254  2.00554681 10935
